GLOBALSTAR M045         
1 25676U 99019A   25209.67037473 -.00000096  00000+0 -25494-4 0  9993
2 25676  51.9942 187.0330 0000435 324.2247 207.6781 12.27064394198722
GLOBALSTAR M019         
1 25677U 99019B   25210.03877013 -.00000055  00000+0  36721-3 0  9996
2 25677  51.9905 319.2957 0001589  74.2261  96.6785 12.13875825190417
GLOBALSTAR M044         
1 25678U 99019C   25210.51626105 -.00000101  00000+0 -24685-3 0  9993
2 25678  51.9965 274.6263 0006391 124.6989 342.0457 11.90253985176342
GLOBALSTAR M042         
1 25679U 99019D   25209.53951024 -.00000058  00000+0  31955-3 0  9993
2 25679  52.0021 294.2182 0002839  35.0901  66.3029 12.22084746190315
GLOBALSTAR M025         
1 25770U 99031A   25209.52541946 -.00000052  00000+0  48269-3 0  9996
2 25770  51.9827  63.5083 0001062 204.9843 184.4740 11.22562030486355
GLOBALSTAR M049         
1 25771U 99031B   25209.60461486 -.00000003  00000+0  21589-2 0  9997
2 25771  51.9877 100.1710 0003461  69.7615 290.3553 11.12117682122034
GLOBALSTAR M047         
1 25772U 99031C   25209.38896948 -.00000054  00000+0  42110-3 0  9998
2 25772  51.9837  93.6923 0016716 336.0241  23.9785 11.31929102475773
GLOBALSTAR M052         
1 25773U 99031D   25209.57815836 -.00000057  00000+0  30672-3 0  9990
2 25773  51.9824 208.3220 0002867 247.0938 271.8544 11.15060105483127
